[
    {
        "Altitude(m)": 607911.0043068125,
        "Argument of Periapsis(deg)": 0.0,
        "Eccentricity": 0.0,
        "Inclination(deg)": 60.0,
        "Latitude(deg)": -14.292917552880663,
        "Longitude(deg)": 178.4426255838918,
        "Mean Anomaly(deg)": 196.36359999999996,
        "RAAN(deg)": 90.0,
        "Satellite Name": "Test1 408",
        "Satellite Number": 408,
        "Semi-Major Axis(m)": 6980739.136638005,
        "Time(s)": 0
    },
    {
        "Altitude(m)": 608060.2378205104,
        "Argument of Periapsis(deg)": 0.00010418945913296404,
        "Eccentricity": 0.0,
        "Inclination(deg)": 60.0,
        "Latitude(deg)": -14.826579395333882,
        "Longitude(deg)": 178.73123413301303,
        "Mean Anomaly(deg)": 196.98370614546184,
        "RAAN(deg)": 89.99957995086027,
        "Satellite Name": "Test1 408",
        "Satellite Number": 408,
        "Semi-Major Axis(m)": 6980739.136638005,
        "Time(s)": 10
    }
]